[{"OBJECT_NAME":"SHERPA-LTC2","OBJECT_ID":"2022-107BG","EPOCH":"2026-03-09T17:14:31.494912","MEAN_MOTION":14.68527555,"ECCENTRICITY":0.0397806,"INCLINATION":53.2359,"RA_OF_ASC_NODE":281.0426,"ARG_OF_PERICENTER":308.3547,"MEAN_ANOMALY":48.2298,"EPHEMERIS_TYPE":0,"CLASSIFICATION_TYPE":"U","NORAD_CAT_ID":53754,"ELEMENT_SET_NO":999,"REV_AT_EPOCH":18792,"BSTAR":0.0002221958,"MEAN_MOTION_DOT":4.161e-5,"MEAN_MOTION_DDOT":0},{"OBJECT_NAME":"COSMOS 1275 DEB","OBJECT_ID":"1981-053QY","EPOCH":"2026-03-09T07:23:14.113536","MEAN_MOTION":13.98178676,"ECCENTRICITY":0.00637476,"INCLINATION":83.0197,"RA_OF_ASC_NODE":65.3773,"ARG_OF_PERICENTER":182.8937,"MEAN_ANOMALY":177.1873,"EPHEMERIS_TYPE":0,"CLASSIFICATION_TYPE":"U","NORAD_CAT_ID":42136,"ELEMENT_SET_NO":999,"REV_AT_EPOCH":62356,"BSTAR":0.0015057399,"MEAN_MOTION_DOT":2.196e-5,"MEAN_MOTION_DDOT":0}]
